[{"OBJECT_NAME":"STARLINK-36712","OBJECT_ID":"2026-025H","EPOCH":"2026-03-03T20:50:12.839424","MEAN_MOTION":15.75239763,"ECCENTRICITY":6.49e-5,"INCLINATION":97.285,"RA_OF_ASC_NODE":174.1587,"ARG_OF_PERICENTER":66.2861,"MEAN_ANOMALY":293.8472,"EPHEMERIS_TYPE":0,"CLASSIFICATION_TYPE":"U","NORAD_CAT_ID":67700,"ELEMENT_SET_NO":999,"REV_AT_EPOCH":502,"BSTAR":0.002485,"MEAN_MOTION_DOT":0.00388769,"MEAN_MOTION_DDOT":0},{"OBJECT_NAME":"STARLINK-36713","OBJECT_ID":"2026-025J","EPOCH":"2026-03-03T19:21:16.999200","MEAN_MOTION":15.75441394,"ECCENTRICITY":0.0003244,"INCLINATION":97.2853,"RA_OF_ASC_NODE":174.0896,"ARG_OF_PERICENTER":66.8532,"MEAN_ANOMALY":293.3074,"EPHEMERIS_TYPE":0,"CLASSIFICATION_TYPE":"U","NORAD_CAT_ID":67701,"ELEMENT_SET_NO":999,"REV_AT_EPOCH":502,"BSTAR":0.0033102,"MEAN_MOTION_DOT":0.00531323,"MEAN_MOTION_DDOT":0},{"OBJECT_NAME":"STARLINK-36695","OBJECT_ID":"2026-025K","EPOCH":"2026-03-03T19:24:19.731744","MEAN_MOTION":15.75205945,"ECCENTRICITY":0.0001078,"INCLINATION":97.2862,"RA_OF_ASC_NODE":174.0853,"ARG_OF_PERICENTER":110.0581,"MEAN_ANOMALY":250.0801,"EPHEMERIS_TYPE":0,"CLASSIFICATION_TYPE":"U","NORAD_CAT_ID":67702,"ELEMENT_SET_NO":999,"REV_AT_EPOCH":501,"BSTAR":0.0017537079,"MEAN_MOTION_DOT":0.00270079,"MEAN_MOTION_DDOT":0},{"OBJECT_NAME":"STARLINK-36630","OBJECT_ID":"2026-025L","EPOCH":"2026-03-03T20:11:51.148608","MEAN_MOTION":15.80843409,"ECCENTRICITY":0.0001651,"INCLINATION":97.2854,"RA_OF_ASC_NODE":174.1946,"ARG_OF_PERICENTER":56.8513,"MEAN_ANOMALY":303.2913,"EPHEMERIS_TYPE":0,"CLASSIFICATION_TYPE":"U","NORAD_CAT_ID":67703,"ELEMENT_SET_NO":999,"REV_AT_EPOCH":502,"BSTAR":0.0022282,"MEAN_MOTION_DOT":0.00450006,"MEAN_MOTION_DDOT":0},{"OBJECT_NAME":"STARLINK-36338","OBJECT_ID":"2026-025M","EPOCH":"2026-03-04T04:00:03.000096","MEAN_MOTION":15.75154384,"ECCENTRICITY":0.0001323,"INCLINATION":97.2856,"RA_OF_ASC_NODE":174.5152,"ARG_OF_PERICENTER":106.0083,"MEAN_ANOMALY":245.6522,"EPHEMERIS_TYPE":0,"CLASSIFICATION_TYPE":"U","NORAD_CAT_ID":67704,"ELEMENT_SET_NO":999,"REV_AT_EPOCH":502,"BSTAR":0.00046499,"MEAN_MOTION_DOT":0.00069686,"MEAN_MOTION_DDOT":0},{"OBJECT_NAME":"STARLINK-36316","OBJECT_ID":"2026-025N","EPOCH":"2026-03-03T19:07:33.244320","MEAN_MOTION":15.75281087,"ECCENTRICITY":7.13e-5,"INCLINATION":97.2858,"RA_OF_ASC_NODE":174.1023,"ARG_OF_PERICENTER":95.9117,"MEAN_ANOMALY":264.2229,"EPHEMERIS_TYPE":0,"CLASSIFICATION_TYPE":"U","NORAD_CAT_ID":67705,"ELEMENT_SET_NO":999,"REV_AT_EPOCH":501,"BSTAR":0.0013484,"MEAN_MOTION_DOT":0.00206752,"MEAN_MOTION_DDOT":0},{"OBJECT_NAME":"STARLINK-36707","OBJECT_ID":"2026-025P","EPOCH":"2026-03-04T04:00:03.000096","MEAN_MOTION":15.75192087,"ECCENTRICITY":0.0001501,"INCLINATION":97.2852,"RA_OF_ASC_NODE":174.5379,"ARG_OF_PERICENTER":81.9502,"MEAN_ANOMALY":325.6941,"EPHEMERIS_TYPE":0,"CLASSIFICATION_TYPE":"U","NORAD_CAT_ID":67706,"ELEMENT_SET_NO":999,"REV_AT_EPOCH":481,"BSTAR":-0.00026669,"MEAN_MOTION_DOT":-0.00039728,"MEAN_MOTION_DDOT":0},{"OBJECT_NAME":"STARLINK-36645","OBJECT_ID":"2026-025Q","EPOCH":"2026-03-03T19:13:08.249952","MEAN_MOTION":15.75247026,"ECCENTRICITY":5.28e-5,"INCLINATION":97.2858,"RA_OF_ASC_NODE":174.0969,"ARG_OF_PERICENTER":122.1876,"MEAN_ANOMALY":237.9441,"EPHEMERIS_TYPE":0,"CLASSIFICATION_TYPE":"U","NORAD_CAT_ID":67707,"ELEMENT_SET_NO":999,"REV_AT_EPOCH":501,"BSTAR":0.001581,"MEAN_MOTION_DOT":0.00243134,"MEAN_MOTION_DDOT":0},{"OBJECT_NAME":"STARLINK-36287","OBJECT_ID":"2026-025R","EPOCH":"2026-03-04T03:33:56.401344","MEAN_MOTION":15.80962828,"ECCENTRICITY":0.0001524,"INCLINATION":97.2849,"RA_OF_ASC_NODE":174.5408,"ARG_OF_PERICENTER":58.883,"MEAN_ANOMALY":301.2588,"EPHEMERIS_TYPE":0,"CLASSIFICATION_TYPE":"U","NORAD_CAT_ID":67708,"ELEMENT_SET_NO":999,"REV_AT_EPOCH":508,"BSTAR":0.001722,"MEAN_MOTION_DOT":0.00345404,"MEAN_MOTION_DDOT":0},{"OBJECT_NAME":"STARLINK-36698","OBJECT_ID":"2026-025S","EPOCH":"2026-03-03T19:48:11.778912","MEAN_MOTION":15.80936277,"ECCENTRICITY":0.0001,"INCLINATION":97.2858,"RA_OF_ASC_NODE":174.2143,"ARG_OF_PERICENTER":113.2107,"MEAN_ANOMALY":246.9267,"EPHEMERIS_TYPE":0,"CLASSIFICATION_TYPE":"U","NORAD_CAT_ID":67709,"ELEMENT_SET_NO":999,"REV_AT_EPOCH":502,"BSTAR":0.0012405006,"MEAN_MOTION_DOT":0.0024563,"MEAN_MOTION_DDOT":0},{"OBJECT_NAME":"STARLINK-36344","OBJECT_ID":"2026-025T","EPOCH":"2026-03-04T04:00:03.000096","MEAN_MOTION":15.75126696,"ECCENTRICITY":0.0001433,"INCLINATION":97.2847,"RA_OF_ASC_NODE":174.5484,"ARG_OF_PERICENTER":71.2628,"MEAN_ANOMALY":0.4255,"EPHEMERIS_TYPE":0,"CLASSIFICATION_TYPE":"U","NORAD_CAT_ID":67710,"ELEMENT_SET_NO":999,"REV_AT_EPOCH":512,"BSTAR":0.00033832,"MEAN_MOTION_DOT":0.00050494,"MEAN_MOTION_DDOT":0},{"OBJECT_NAME":"STARLINK-36687","OBJECT_ID":"2026-025U","EPOCH":"2026-03-04T03:27:17.035488","MEAN_MOTION":15.81069668,"ECCENTRICITY":0.0001034,"INCLINATION":97.2851,"RA_OF_ASC_NODE":174.5461,"ARG_OF_PERICENTER":109.332,"MEAN_ANOMALY":250.806,"EPHEMERIS_TYPE":0,"CLASSIFICATION_TYPE":"U","NORAD_CAT_ID":67711,"ELEMENT_SET_NO":999,"REV_AT_EPOCH":508,"BSTAR":0.0029729,"MEAN_MOTION_DOT":0.00618778,"MEAN_MOTION_DDOT":0},{"OBJECT_NAME":"STARLINK-36705","OBJECT_ID":"2026-025V","EPOCH":"2026-03-03T20:16:10.409952","MEAN_MOTION":15.75206491,"ECCENTRICITY":0.0001396,"INCLINATION":97.2869,"RA_OF_ASC_NODE":174.1856,"ARG_OF_PERICENTER":77.1669,"MEAN_ANOMALY":282.9752,"EPHEMERIS_TYPE":0,"CLASSIFICATION_TYPE":"U","NORAD_CAT_ID":67712,"ELEMENT_SET_NO":999,"REV_AT_EPOCH":502,"BSTAR":0.0026443,"MEAN_MOTION_DOT":0.0041434,"MEAN_MOTION_DDOT":0},{"OBJECT_NAME":"STARLINK-36708","OBJECT_ID":"2026-025W","EPOCH":"2026-03-03T05:55:33.590784","MEAN_MOTION":15.81043377,"ECCENTRICITY":0.00013277,"INCLINATION":97.2866,"RA_OF_ASC_NODE":173.622,"ARG_OF_PERICENTER":127.8035,"MEAN_ANOMALY":232.3354,"EPHEMERIS_TYPE":0,"CLASSIFICATION_TYPE":"U","NORAD_CAT_ID":67713,"ELEMENT_SET_NO":999,"REV_AT_EPOCH":493,"BSTAR":0.002764055,"MEAN_MOTION_DOT":0.00571415,"MEAN_MOTION_DDOT":0},{"OBJECT_NAME":"STARLINK-36702","OBJECT_ID":"2026-025X","EPOCH":"2026-03-04T04:45:41.011776","MEAN_MOTION":15.80968719,"ECCENTRICITY":0.0001439,"INCLINATION":97.2855,"RA_OF_ASC_NODE":174.6236,"ARG_OF_PERICENTER":112.962,"MEAN_ANOMALY":247.18,"EPHEMERIS_TYPE":0,"CLASSIFICATION_TYPE":"U","NORAD_CAT_ID":67714,"ELEMENT_SET_NO":999,"REV_AT_EPOCH":508,"BSTAR":0.0017609,"MEAN_MOTION_DOT":0.0035366,"MEAN_MOTION_DDOT":0},{"OBJECT_NAME":"STARLINK-36718","OBJECT_ID":"2026-025Y","EPOCH":"2026-03-03T19:29:53.049984","MEAN_MOTION":15.8088664,"ECCENTRICITY":9.713e-5,"INCLINATION":97.2862,"RA_OF_ASC_NODE":174.2307,"ARG_OF_PERICENTER":115.7677,"MEAN_ANOMALY":244.3691,"EPHEMERIS_TYPE":0,"CLASSIFICATION_TYPE":"U","NORAD_CAT_ID":67715,"ELEMENT_SET_NO":999,"REV_AT_EPOCH":502,"BSTAR":0.0018801524,"MEAN_MOTION_DOT":0.00377243,"MEAN_MOTION_DDOT":0},{"OBJECT_NAME":"STARLINK-36715","OBJECT_ID":"2026-025Z","EPOCH":"2026-03-04T04:39:46.629216","MEAN_MOTION":15.80871481,"ECCENTRICITY":0.0001744,"INCLINATION":97.2857,"RA_OF_ASC_NODE":174.6295,"ARG_OF_PERICENTER":71.1039,"MEAN_ANOMALY":289.0419,"EPHEMERIS_TYPE":0,"CLASSIFICATION_TYPE":"U","NORAD_CAT_ID":67716,"ELEMENT_SET_NO":999,"REV_AT_EPOCH":508,"BSTAR":0.001439,"MEAN_MOTION_DOT":0.00285437,"MEAN_MOTION_DDOT":0}]
