STARLINK-36712          
1 67700U 26025H   26062.86820416  .00388769  00000+0  24850-2 0  9997
2 67700  97.2850 174.1587 0000649  66.2861 293.8472 15.75239763  5024
STARLINK-36713          
1 67701U 26025J   26062.80644675  .00531323  00000+0  33102-2 0  9999
2 67701  97.2853 174.0896 0003244  66.8532 293.3074 15.75441394  5023
STARLINK-36695          
1 67702U 26025K   26062.80856171  .00270079  00000+0  17537-2 0  9998
2 67702  97.2862 174.0853 0001078 110.0581 250.0801 15.75205945  5013
STARLINK-36630          
1 67703U 26025L   26062.84156422  .00450006  00000+0  22282-2 0  9998
2 67703  97.2854 174.1946 0001651  56.8513 303.2913 15.80843409  5023
STARLINK-36338          
1 67704U 26025M   26063.16670139  .00069686  00000+0  46499-3 0  9998
2 67704  97.2856 174.5152 0001323 106.0083 245.6522 15.75154384  5021
STARLINK-36316          
1 67705U 26025N   26062.79691255  .00206752  00000+0  13484-2 0  9993
2 67705  97.2858 174.1023 0000713  95.9117 264.2229 15.75281087  5014
STARLINK-36707          
1 67706U 26025P   26063.16670139 -.00039728  00000+0 -26669-3 0  9993
2 67706  97.2852 174.5379 0001501  81.9502 325.6941 15.75192087  4817
STARLINK-36645          
1 67707U 26025Q   26062.80078993  .00243134  00000+0  15810-2 0  9995
2 67707  97.2858 174.0969 0000528 122.1876 237.9441 15.75247026  5011
STARLINK-36287          
1 67708U 26025R   26063.14856946  .00345404  00000+0  17220-2 0  9996
2 67708  97.2849 174.5408 0001524  58.8830 301.2588 15.80962828  5081
STARLINK-36698          
1 67709U 26025S   26062.82513633  .00245630  00000+0  12405-2 0  9994
2 67709  97.2858 174.2143 0001000 113.2107 246.9267 15.80936277  5029
STARLINK-36344          
1 67710U 26025T   26063.16670139  .00050494  00000+0  33832-3 0  9999
2 67710  97.2847 174.5484 0001433  71.2628   0.4255 15.75126696  5122
STARLINK-36687          
1 67711U 26025U   26063.14394717  .00618778  00000+0  29729-2 0  9997
2 67711  97.2851 174.5461 0001034 109.3320 250.8060 15.81069668  5084
STARLINK-36705          
1 67712U 26025V   26062.84456493  .00414340  00000+0  26443-2 0  9993
2 67712  97.2869 174.1856 0001396  77.1669 282.9752 15.75206491  5025
STARLINK-36708          
1 67713U 26025W   26062.24691656  .00571415  00000+0  27641-2 0  9998
2 67713  97.2866 173.6220 0001327 127.8035 232.3354 15.81043377  4931
STARLINK-36702          
1 67714U 26025X   26063.19839134  .00353660  00000+0  17609-2 0  9992
2 67714  97.2855 174.6236 0001439 112.9620 247.1800 15.80968719  5089
STARLINK-36718          
1 67715U 26025Y   26062.81241956  .00377243  00000+0  18802-2 0  9999
2 67715  97.2862 174.2307 0000971 115.7677 244.3691 15.80886640  5029
STARLINK-36715          
1 67716U 26025Z   26063.19428969  .00285437  00000+0  14390-2 0  9994
2 67716  97.2857 174.6295 0001744  71.1039 289.0419 15.80871481  5087
